[{"OBJECT_NAME":"EUTELSAT 139 WEST A","OBJECT_ID":"2004-008A","EPOCH":"2026-03-06T18:56:20.832864","MEAN_MOTION":1.00832865,"ECCENTRICITY":0.0001461,"INCLINATION":5.5688,"RA_OF_ASC_NODE":73.2357,"ARG_OF_PERICENTER":30.5889,"MEAN_ANOMALY":312.2135,"EPHEMERIS_TYPE":0,"CLASSIFICATION_TYPE":"U","NORAD_CAT_ID":28187,"ELEMENT_SET_NO":999,"REV_AT_EPOCH":8032,"BSTAR":0,"MEAN_MOTION_DOT":-1.51e-6,"MEAN_MOTION_DDOT":0},{"OBJECT_NAME":"EUTELSAT 174A","OBJECT_ID":"2005-052A","EPOCH":"2026-03-06T18:12:32.532768","MEAN_MOTION":1.00274479,"ECCENTRICITY":0.0006285,"INCLINATION":3.9591,"RA_OF_ASC_NODE":77.7981,"ARG_OF_PERICENTER":272.7712,"MEAN_ANOMALY":261.032,"EPHEMERIS_TYPE":0,"CLASSIFICATION_TYPE":"U","NORAD_CAT_ID":28924,"ELEMENT_SET_NO":999,"REV_AT_EPOCH":5130,"BSTAR":0,"MEAN_MOTION_DOT":7.0e-8,"MEAN_MOTION_DDOT":0},{"OBJECT_NAME":"EUTELSAT 33F","OBJECT_ID":"2006-032A","EPOCH":"2026-03-06T19:14:56.549760","MEAN_MOTION":1.0027055,"ECCENTRICITY":0.0003515,"INCLINATION":1.397,"RA_OF_ASC_NODE":83.447,"ARG_OF_PERICENTER":264.1161,"MEAN_ANOMALY":138.7644,"EPHEMERIS_TYPE":0,"CLASSIFICATION_TYPE":"U","NORAD_CAT_ID":29270,"ELEMENT_SET_NO":999,"REV_AT_EPOCH":4628,"BSTAR":0,"MEAN_MOTION_DOT":1.53e-6,"MEAN_MOTION_DDOT":0},{"OBJECT_NAME":"EUTELSAT HOTBIRD 13C","OBJECT_ID":"2008-065A","EPOCH":"2026-03-06T18:51:13.824288","MEAN_MOTION":1.00273773,"ECCENTRICITY":0.000382,"INCLINATION":2.6871,"RA_OF_ASC_NODE":80.4183,"ARG_OF_PERICENTER":275.2898,"MEAN_ANOMALY":41.2928,"EPHEMERIS_TYPE":0,"CLASSIFICATION_TYPE":"U","NORAD_CAT_ID":33459,"ELEMENT_SET_NO":999,"REV_AT_EPOCH":4631,"BSTAR":0,"MEAN_MOTION_DOT":-2.85e-6,"MEAN_MOTION_DDOT":0},{"OBJECT_NAME":"EUTELSAT 36B","OBJECT_ID":"2009-065A","EPOCH":"2026-03-06T19:19:56.070048","MEAN_MOTION":1.00272997,"ECCENTRICITY":0.0005866,"INCLINATION":0.2328,"RA_OF_ASC_NODE":77.7421,"ARG_OF_PERICENTER":272.101,"MEAN_ANOMALY":155.1303,"EPHEMERIS_TYPE":0,"CLASSIFICATION_TYPE":"U","NORAD_CAT_ID":36101,"ELEMENT_SET_NO":999,"REV_AT_EPOCH":5968,"BSTAR":0,"MEAN_MOTION_DOT":1.09e-6,"MEAN_MOTION_DDOT":0},{"OBJECT_NAME":"EUTELSAT KA-SAT 9A","OBJECT_ID":"2010-069A","EPOCH":"2026-03-06T08:51:56.954016","MEAN_MOTION":1.00271346,"ECCENTRICITY":0.00025992,"INCLINATION":0.0575,"RA_OF_ASC_NODE":355.3085,"ARG_OF_PERICENTER":151.5415,"MEAN_ANOMALY":159.2287,"EPHEMERIS_TYPE":0,"CLASSIFICATION_TYPE":"U","NORAD_CAT_ID":37258,"ELEMENT_SET_NO":999,"REV_AT_EPOCH":4297,"BSTAR":0,"MEAN_MOTION_DOT":5.7e-7,"MEAN_MOTION_DDOT":0},{"OBJECT_NAME":"EUTELSAT 7 WEST A","OBJECT_ID":"2011-051A","EPOCH":"2026-03-06T10:24:38.712096","MEAN_MOTION":1.00272194,"ECCENTRICITY":9.871e-5,"INCLINATION":0.07,"RA_OF_ASC_NODE":12.7016,"ARG_OF_PERICENTER":225.6803,"MEAN_ANOMALY":74.6073,"EPHEMERIS_TYPE":0,"CLASSIFICATION_TYPE":"U","NORAD_CAT_ID":37816,"ELEMENT_SET_NO":999,"REV_AT_EPOCH":5284,"BSTAR":0,"MEAN_MOTION_DOT":-6.5e-7,"MEAN_MOTION_DDOT":0},{"OBJECT_NAME":"EUTELSAT 16A","OBJECT_ID":"2011-057A","EPOCH":"2026-03-06T19:10:04.516032","MEAN_MOTION":1.0027252,"ECCENTRICITY":0.0005476,"INCLINATION":0.0559,"RA_OF_ASC_NODE":358.5523,"ARG_OF_PERICENTER":349.168,"MEAN_ANOMALY":120.2957,"EPHEMERIS_TYPE":0,"CLASSIFICATION_TYPE":"U","NORAD_CAT_ID":37836,"ELEMENT_SET_NO":999,"REV_AT_EPOCH":631,"BSTAR":0,"MEAN_MOTION_DOT":1.01e-6,"MEAN_MOTION_DDOT":0},{"OBJECT_NAME":"EUTELSAT 21B","OBJECT_ID":"2012-062B","EPOCH":"2026-03-06T19:11:41.861184","MEAN_MOTION":1.00272649,"ECCENTRICITY":0.0002843,"INCLINATION":0.0689,"RA_OF_ASC_NODE":2.9759,"ARG_OF_PERICENTER":340.2795,"MEAN_ANOMALY":130.7628,"EPHEMERIS_TYPE":0,"CLASSIFICATION_TYPE":"U","NORAD_CAT_ID":38992,"ELEMENT_SET_NO":999,"REV_AT_EPOCH":4880,"BSTAR":0,"MEAN_MOTION_DOT":1.27e-6,"MEAN_MOTION_DDOT":0},{"OBJECT_NAME":"EUTELSAT 70B","OBJECT_ID":"2012-069A","EPOCH":"2026-03-06T13:54:02.827296","MEAN_MOTION":1.00270923,"ECCENTRICITY":0.00021226,"INCLINATION":0.0658,"RA_OF_ASC_NODE":343.3634,"ARG_OF_PERICENTER":342.2722,"MEAN_ANOMALY":117.6681,"EPHEMERIS_TYPE":0,"CLASSIFICATION_TYPE":"U","NORAD_CAT_ID":39020,"ELEMENT_SET_NO":999,"REV_AT_EPOCH":4848,"BSTAR":0,"MEAN_MOTION_DOT":-4.7e-7,"MEAN_MOTION_DDOT":0},{"OBJECT_NAME":"EUTELSAT 117 WEST A","OBJECT_ID":"2013-012A","EPOCH":"2026-03-06T13:24:07.687584","MEAN_MOTION":1.00271445,"ECCENTRICITY":0.00029135,"INCLINATION":0.0494,"RA_OF_ASC_NODE":296.3043,"ARG_OF_PERICENTER":53.3758,"MEAN_ANOMALY":258.8115,"EPHEMERIS_TYPE":0,"CLASSIFICATION_TYPE":"U","NORAD_CAT_ID":39122,"ELEMENT_SET_NO":999,"REV_AT_EPOCH":4740,"BSTAR":0,"MEAN_MOTION_DOT":-1.7e-7,"MEAN_MOTION_DDOT":0},{"OBJECT_NAME":"EUTELSAT 7B","OBJECT_ID":"2013-022A","EPOCH":"2026-03-06T19:07:34.754592","MEAN_MOTION":1.00273281,"ECCENTRICITY":0.0006336,"INCLINATION":0.0682,"RA_OF_ASC_NODE":356.6397,"ARG_OF_PERICENTER":359.7438,"MEAN_ANOMALY":102.0047,"EPHEMERIS_TYPE":0,"CLASSIFICATION_TYPE":"U","NORAD_CAT_ID":39163,"ELEMENT_SET_NO":999,"REV_AT_EPOCH":4692,"BSTAR":0,"MEAN_MOTION_DOT":4.5e-7,"MEAN_MOTION_DDOT":0},{"OBJECT_NAME":"EXPRESS-AT1","OBJECT_ID":"2014-010A","EPOCH":"2026-03-06T21:04:14.206944","MEAN_MOTION":1.00272477,"ECCENTRICITY":3.16e-5,"INCLINATION":0.0122,"RA_OF_ASC_NODE":220.417,"ARG_OF_PERICENTER":58.5063,"MEAN_ANOMALY":257.7082,"EPHEMERIS_TYPE":0,"CLASSIFICATION_TYPE":"U","NORAD_CAT_ID":39612,"ELEMENT_SET_NO":999,"REV_AT_EPOCH":4379,"BSTAR":0,"MEAN_MOTION_DOT":7.6e-7,"MEAN_MOTION_DDOT":0},{"OBJECT_NAME":"EXPRESS-AT2","OBJECT_ID":"2014-010B","EPOCH":"2026-03-06T19:47:51.645984","MEAN_MOTION":1.002696,"ECCENTRICITY":0.0001058,"INCLINATION":0.0191,"RA_OF_ASC_NODE":161.3918,"ARG_OF_PERICENTER":121.7571,"MEAN_ANOMALY":318.2207,"EPHEMERIS_TYPE":0,"CLASSIFICATION_TYPE":"U","NORAD_CAT_ID":39613,"ELEMENT_SET_NO":999,"REV_AT_EPOCH":4347,"BSTAR":0,"MEAN_MOTION_DOT":0,"MEAN_MOTION_DDOT":0},{"OBJECT_NAME":"EUTELSAT 3B","OBJECT_ID":"2014-030A","EPOCH":"2026-03-06T19:06:27.362592","MEAN_MOTION":1.00270799,"ECCENTRICITY":8.28e-5,"INCLINATION":0.0631,"RA_OF_ASC_NODE":341.1133,"ARG_OF_PERICENTER":300.4654,"MEAN_ANOMALY":172.6337,"EPHEMERIS_TYPE":0,"CLASSIFICATION_TYPE":"U","NORAD_CAT_ID":39773,"ELEMENT_SET_NO":999,"REV_AT_EPOCH":4304,"BSTAR":0,"MEAN_MOTION_DOT":1.6e-7,"MEAN_MOTION_DDOT":0},{"OBJECT_NAME":"EUTELSAT 115 WEST B","OBJECT_ID":"2015-010B","EPOCH":"2026-03-05T06:41:38.757120","MEAN_MOTION":1.00272581,"ECCENTRICITY":1.8e-5,"INCLINATION":0.029,"RA_OF_ASC_NODE":16.3684,"ARG_OF_PERICENTER":73.5386,"MEAN_ANOMALY":58.6084,"EPHEMERIS_TYPE":0,"CLASSIFICATION_TYPE":"U","NORAD_CAT_ID":40425,"ELEMENT_SET_NO":999,"REV_AT_EPOCH":4035,"BSTAR":0,"MEAN_MOTION_DOT":-3.3e-7,"MEAN_MOTION_DDOT":0},{"OBJECT_NAME":"EUTELSAT 8 WEST B","OBJECT_ID":"2015-039B","EPOCH":"2026-03-06T10:24:38.712096","MEAN_MOTION":1.00271762,"ECCENTRICITY":0.00038125,"INCLINATION":0.0673,"RA_OF_ASC_NODE":1.5995,"ARG_OF_PERICENTER":343.7552,"MEAN_ANOMALY":326.9541,"EPHEMERIS_TYPE":0,"CLASSIFICATION_TYPE":"U","NORAD_CAT_ID":40875,"ELEMENT_SET_NO":999,"REV_AT_EPOCH":3862,"BSTAR":0,"MEAN_MOTION_DOT":-7.0e-7,"MEAN_MOTION_DDOT":0}]
