EUTELSAT 139 WEST A     
1 28187U 04008A   26065.78913001 -.00000151  00000+0  00000+0 0  9992
2 28187   5.5688  73.2357 0001461  30.5889 312.2135  1.00832865 80325
EUTELSAT 174A           
1 28924U 05052A   26065.75870987  .00000007  00000+0  00000+0 0  9992
2 28924   3.9591  77.7981 0006285 272.7712 261.0320  1.00274479 51309
EUTELSAT 33F            
1 29270U 06032A   26065.80204340  .00000153  00000+0  00000+0 0  9998
2 29270   1.3970  83.4470 0003515 264.1161 138.7644  1.00270550 46286
EUTELSAT HOTBIRD 13C    
1 33459U 08065A   26065.78557667 -.00000285  00000+0  00000+0 0  9997
2 33459   2.6871  80.4183 0003820 275.2898  41.2928  1.00273773 46318
EUTELSAT 36B            
1 36101U 09065A   26065.80551007  .00000109  00000+0  00000+0 0  9994
2 36101   0.2328  77.7421 0005866 272.1010 155.1303  1.00272997 59687
EUTELSAT KA-SAT 9A      
1 37258U 10069A   26065.36940919  .00000057  00000+0  00000+0 0  9991
2 37258   0.0575 355.3085 0002599 151.5415 159.2287  1.00271346 42970
EUTELSAT 7 WEST A       
1 37816U 11051A   26065.43378139 -.00000065  00000+0  00000+0 0  9990
2 37816   0.0700  12.7016 0000987 225.6803  74.6073  1.00272194 52843
EUTELSAT 16A            
1 37836U 11057A   26065.79866338  .00000101  00000+0  00000+0 0  9990
2 37836   0.0559 358.5523 0005476 349.1680 120.2957  1.00272520  6317
EUTELSAT 21B            
1 38992U 12062B   26065.79979006  .00000127  00000+0  00000+0 0  9996
2 38992   0.0689   2.9759 0002843 340.2795 130.7628  1.00272649 48803
EUTELSAT 70B            
1 39020U 12069A   26065.57919939 -.00000047  00000+0  00000+0 0  9993
2 39020   0.0658 343.3634 0002122 342.2722 117.6681  1.00270923 48488
EUTELSAT 117 WEST A     
1 39122U 13012A   26065.55842231 -.00000017  00000+0  00000+0 0  9990
2 39122   0.0494 296.3043 0002913  53.3758 258.8115  1.00271445 47408
EUTELSAT 7B             
1 39163U 13022A   26065.79693003  .00000045  00000+0  00000+0 0  9993
2 39163   0.0682 356.6397 0006336 359.7438 102.0047  1.00273281 46925
EXPRESS-AT1             
1 39612U 14010A   26065.87794221  .00000076  00000+0  00000+0 0  9997
2 39612   0.0122 220.4170 0000316  58.5063 257.7082  1.00272477 43795
EXPRESS-AT2             
1 39613U 14010B   26065.82490331  .00000000  00000+0  00000+0 0  9995
2 39613   0.0191 161.3918 0001058 121.7571 318.2207  1.00269600 43477
EUTELSAT 3B             
1 39773U 14030A   26065.79615003  .00000016  00000+0  00000+0 0  9992
2 39773   0.0631 341.1133 0000828 300.4654 172.6337  1.00270799 43042
EUTELSAT 115 WEST B     
1 40425U 15010B   26064.27892080 -.00000033  00000+0  00000+0 0  9991
2 40425   0.0290  16.3684 0000180  73.5386  58.6084  1.00272581 40356
EUTELSAT 8 WEST B       
1 40875U 15039B   26065.43378139 -.00000070  00000+0  00000+0 0  9995
2 40875   0.0673   1.5995 0003812 343.7552 326.9541  1.00271762 38629
